NAVSTAR 77 (USA 289)    
1 43873U 18109A   24147.89441638  .00000060  00000+0  00000+0 0  9999
2 43873  55.2898 121.8695 0028933 195.7558 339.7731  2.00554913 40007
